{"type": "FeatureCollection", "features": [ {"type": "Feature", "properties": {"norad_id": 35480, "name": "IRIDIUM 33 DEB", "group": "iridium-33-debris", "lat": 80.91111884220288, "lon": 179.4350645503641, "alt_km": 707.7678662178414, "timestamp": "2025-12-17T09:00:17.533440+00:00", "meta": {"OBJECT_NAME": "IRIDIUM 33 DEB", "OBJECT_ID": "1997-051QA", "EPOCH": "2025-12-15T08:30:57.118464", "MEAN_MOTION": 14.49774703, "ECCENTRICITY": 0.00160032, "INCLINATION": 86.3571, "RA_OF_ASC_NODE": 23.7786, "ARG_OF_PERICENTER": 97.0457, "MEAN_ANOMALY": 263.2568, "EPHEMERIS_TYPE": 0, "CLASSIFICATION_TYPE": "U", "NORAD_CAT_ID": 35480, "ELEMENT_SET_NO": 999, "REV_AT_EPOCH": 87069, "BSTAR": 0.00045738518, "MEAN_MOTION_DOT": 1.785e-05, "MEAN_MOTION_DDOT": 0}, "tle": {"line1": "1 35480U 97051QA  25349.35482776  .00001785  00000+0  45739-3 0  9998", "line2": "2 35480  86.3571  23.7786 0016003  97.0457 263.2568 14.49774703870695"}}, "geometry": {"type": "Point", "coordinates": [179.4350645503641, 80.91111884220288]}}, {"type": "Feature", "properties": {"norad_id": 35484, "name": "IRIDIUM 33 DEB", "group": "iridium-33-debris", "lat": 1.7046299423551756, "lon": -9.314418964810743, "alt_km": 577.0676038540632, "timestamp": "2025-12-17T09:00:17.533450+00:00", "meta": {"OBJECT_NAME": "IRIDIUM 33 DEB", "OBJECT_ID": "1997-051QE", "EPOCH": "2025-12-13T07:15:48.307680", "MEAN_MOTION": 14.98714194, "ECCENTRICITY": 0.00237352, "INCLINATION": 86.3615, "RA_OF_ASC_NODE": 352.4822, "ARG_OF_PERICENTER": 123.3819, "MEAN_ANOMALY": 236.9688, "EPHEMERIS_TYPE": 0, "CLASSIFICATION_TYPE": "U", "NORAD_CAT_ID": 35484, "ELEMENT_SET_NO": 999, "REV_AT_EPOCH": 62024, "BSTAR": 0.0048114888, "MEAN_MOTION_DOT": 0.00058609, "MEAN_MOTION_DDOT": 0}, "tle": {"line1": "1 35484U 97051QE  25347.30264245  .00058609  00000+0  48115-2 0  9991", "line2": "2 35484  86.3615 352.4822 0023735 123.3819 236.9688 14.98714194620242"}}, "geometry": {"type": "Point", "coordinates": [-9.314418964810743, 1.7046299423551756]}}, {"type": "Feature", "properties": {"norad_id": 35488, "name": "IRIDIUM 33 DEB", "group": "iridium-33-debris", "lat": -28.363907149414093, "lon": 120.73037380564091, "alt_km": 645.8189056212113, "timestamp": "2025-12-17T09:00:17.533467+00:00", "meta": {"OBJECT_NAME": "IRIDIUM 33 DEB", "OBJECT_ID": "1997-051QJ", "EPOCH": "2025-12-16T20:44:04.560288", "MEAN_MOTION": 14.83164398, "ECCENTRICITY": 0.00293463, "INCLINATION": 86.3231, "RA_OF_ASC_NODE": 298.9766, "ARG_OF_PERICENTER": 29.4676, "MEAN_ANOMALY": 330.8193, "EPHEMERIS_TYPE": 0, "CLASSIFICATION_TYPE": "U", "NORAD_CAT_ID": 35488, "ELEMENT_SET_NO": 999, "REV_AT_EPOCH": 88327, "BSTAR": 0.0013553768, "MEAN_MOTION_DOT": 0.00011171, "MEAN_MOTION_DDOT": 0}, "tle": {"line1": "1 35488U 97051QJ  25350.86394167  .00011171  00000+0  13554-2 0  9999", "line2": "2 35488  86.3231 298.9766 0029346  29.4676 330.8193 14.83164398883270"}}, "geometry": {"type": "Point", "coordinates": [120.73037380564091, -28.363907149414093]}}, {"type": "Feature", "properties": {"norad_id": 35616, "name": "IRIDIUM 33 DEB", "group": "iridium-33-debris", "lat": -13.34574198951638, "lon": -17.217640754135715, "alt_km": 635.0091647057943, "timestamp": "2025-12-17T09:00:17.533488+00:00", "meta": {"OBJECT_NAME": "IRIDIUM 33 DEB", "OBJECT_ID": "1997-051QN", "EPOCH": "2025-12-16T10:22:36.830208", "MEAN_MOTION": 14.81911189, "ECCENTRICITY": 0.00107405, "INCLINATION": 86.3541, "RA_OF_ASC_NODE": 344.0794, "ARG_OF_PERICENTER": 150.4994, "MEAN_ANOMALY": 209.6837, "EPHEMERIS_TYPE": 0, "CLASSIFICATION_TYPE": "U", "NORAD_CAT_ID": 35616, "ELEMENT_SET_NO": 999, "REV_AT_EPOCH": 87629, "BSTAR": 0.0011277405, "MEAN_MOTION_DOT": 8.962e-05, "MEAN_MOTION_DDOT": 0}, "tle": {"line1": "1 35616U 97051QN  25350.43237072  .00008962  00000+0  11277-2 0  9990", "line2": "2 35616  86.3541 344.0794 0010740 150.4994 209.6837 14.81911189876295"}}, "geometry": {"type": "Point", "coordinates": [-17.217640754135715, -13.34574198951638]}}, {"type": "Feature", "properties": {"norad_id": 35618, "name": "IRIDIUM 33 DEB", "group": "iridium-33-debris", "lat": -20.28557920395442, "lon": -9.87529267153047, "alt_km": 704.9059967458888, "timestamp": "2025-12-17T09:00:17.533506+00:00", "meta": {"OBJECT_NAME": "IRIDIUM 33 DEB", "OBJECT_ID": "1997-051QQ", "EPOCH": "2025-12-13T19:06:39.662496", "MEAN_MOTION": 14.52305973, "ECCENTRICITY": 0.00288889, "INCLINATION": 86.3427, "RA_OF_ASC_NODE": 353.0427, "ARG_OF_PERICENTER": 17.6332, "MEAN_ANOMALY": 342.5869, "EPHEMERIS_TYPE": 0, "CLASSIFICATION_TYPE": "U", "NORAD_CAT_ID": 35618, "ELEMENT_SET_NO": 999, "REV_AT_EPOCH": 65409, "BSTAR": 0.0005678553, "MEAN_MOTION_DOT": 2.341e-05, "MEAN_MOTION_DDOT": 0}, "tle": {"line1": "1 35618U 97051QQ  25347.79629239  .00002341  00000+0  56786-3 0  9997", "line2": "2 35618  86.3427 353.0427 0028888  17.6332 342.5869 14.52305973654095"}}, "geometry": {"type": "Point", "coordinates": [-9.87529267153047, -20.28557920395442]}}, {"type": "Feature", "properties": {"norad_id": 35620, "name": "IRIDIUM 33 DEB", "group": "iridium-33-debris", "lat": 84.44437779282715, "lon": -104.0177135595009, "alt_km": 849.5681242556084, "timestamp": "2025-12-17T09:00:17.533523+00:00", "meta": {"OBJECT_NAME": "IRIDIUM 33 DEB", "OBJECT_ID": "1997-051QS", "EPOCH": "2025-12-15T21:31:52.254048", "MEAN_MOTION": 14.38162606, "ECCENTRICITY": 0.01401972, "INCLINATION": 86.3888, "RA_OF_ASC_NODE": 216.1206, "ARG_OF_PERICENTER": 248.5026, "MEAN_ANOMALY": 110.1177, "EPHEMERIS_TYPE": 0, "CLASSIFICATION_TYPE": "U", "NORAD_CAT_ID": 35620, "ELEMENT_SET_NO": 999, "REV_AT_EPOCH": 60011, "BSTAR": 0.0034337761, "MEAN_MOTION_DOT": 0.00011705, "MEAN_MOTION_DDOT": 0}, "tle": {"line1": "1 35620U 97051QS  25349.89713257  .00011705  00000+0  34338-2 0  9999", "line2": "2 35620  86.3888 216.1206 0140197 248.5026 110.1177 14.38162606600119"}}, "geometry": {"type": "Point", "coordinates": [-104.0177135595009, 84.44437779282715]}}, {"type": "Feature", "properties": {"norad_id": 35622, "name": "IRIDIUM 33 DEB", "group": "iridium-33-debris", "lat": -26.70945908175775, "lon": 83.23422119730755, "alt_km": 557.2909003037521, "timestamp": "2025-12-17T09:00:17.533539+00:00", "meta": {"OBJECT_NAME": "IRIDIUM 33 DEB", "OBJECT_ID": "1997-051QU", "EPOCH": "2025-12-14T12:14:43.972224", "MEAN_MOTION": 15.04969242, "ECCENTRICITY": 0.00054886, "INCLINATION": 86.2028, "RA_OF_ASC_NODE": 262.7313, "ARG_OF_PERICENTER": 323.1514, "MEAN_ANOMALY": 209.8665, "EPHEMERIS_TYPE": 0, "CLASSIFICATION_TYPE": "U", "NORAD_CAT_ID": 35622, "ELEMENT_SET_NO": 999, "REV_AT_EPOCH": 87386, "BSTAR": 0.0048535985, "MEAN_MOTION_DOT": 0.00069411, "MEAN_MOTION_DDOT": 0}, "tle": {"line1": "1 35622U 97051QU  25348.51023116  .00069411  00000+0  48536-2 0  9999", "line2": "2 35622  86.2028 262.7313 0005488 323.1514 209.8665 15.04969242873864"}}, "geometry": {"type": "Point", "coordinates": [83.23422119730755, -26.70945908175775]}}, {"type": "Feature", "properties": {"norad_id": 35628, "name": "IRIDIUM 33 DEB", "group": "iridium-33-debris", "lat": 47.52633217670134, "lon": -176.98155581923845, "alt_km": 671.3515700327935, "timestamp": "2025-12-17T09:00:17.533555+00:00", "meta": {"OBJECT_NAME": "IRIDIUM 33 DEB", "OBJECT_ID": "1997-051RA", "EPOCH": "2025-12-16T07:51:32.046336", "MEAN_MOTION": 14.67635018, "ECCENTRICITY": 0.00100441, "INCLINATION": 86.3573, "RA_OF_ASC_NODE": 7.4758, "ARG_OF_PERICENTER": 329.6051, "MEAN_ANOMALY": 30.458, "EPHEMERIS_TYPE": 0, "CLASSIFICATION_TYPE": "U", "NORAD_CAT_ID": 35628, "ELEMENT_SET_NO": 999, "REV_AT_EPOCH": 86499, "BSTAR": 0.00094948025, "MEAN_MOTION_DOT": 5.421e-05, "MEAN_MOTION_DDOT": 0}, "tle": {"line1": "1 35628U 97051RA  25350.32745424  .00005421  00000+0  94948-3 0  9990", "line2": "2 35628  86.3573   7.4758 0010044 329.6051  30.4580 14.67635018864991"}}, "geometry": {"type": "Point", "coordinates": [-176.98155581923845, 47.52633217670134]}}, {"type": "Feature", "properties": {"norad_id": 35631, "name": "IRIDIUM 33 DEB", "group": "iridium-33-debris", "lat": 49.67253910701039, "lon": 23.272329693519797, "alt_km": 721.9491217981331, "timestamp": "2025-12-17T09:00:17.533571+00:00", "meta": {"OBJECT_NAME": "IRIDIUM 33 DEB", "OBJECT_ID": "1997-051RD", "EPOCH": "2025-12-16T20:19:39.185184", "MEAN_MOTION": 14.47322611, "ECCENTRICITY": 0.00191933, "INCLINATION": 86.3669, "RA_OF_ASC_NODE": 19.2073, "ARG_OF_PERICENTER": 105.7414, "MEAN_ANOMALY": 73.8504, "EPHEMERIS_TYPE": 0, "CLASSIFICATION_TYPE": "U", "NORAD_CAT_ID": 35631, "ELEMENT_SET_NO": 999, "REV_AT_EPOCH": 87256, "BSTAR": 0.00028855362, "MEAN_MOTION_DOT": 1.079e-05, "MEAN_MOTION_DDOT": 0}, "tle": {"line1": "1 35631U 97051RD  25350.84698131  .00001079  00000+0  28855-3 0  9992", "line2": "2 35631  86.3669  19.2073 0019193 105.7414  73.8504 14.47322611872561"}}, "geometry": {"type": "Point", "coordinates": [23.272329693519797, 49.67253910701039]}}, {"type": "Feature", "properties": {"norad_id": 35680, "name": "IRIDIUM 33 DEB", "group": "iridium-33-debris", "lat": -56.90668362391661, "lon": 13.467026344274549, "alt_km": 744.5772971545975, "timestamp": "2025-12-17T09:00:17.533587+00:00", "meta": {"OBJECT_NAME": "IRIDIUM 33 DEB", "OBJECT_ID": "1997-051RJ", "EPOCH": "2025-12-14T08:38:54.081024", "MEAN_MOTION": 14.20954301, "ECCENTRICITY": 0.01504449, "INCLINATION": 86.1029, "RA_OF_ASC_NODE": 20.8049, "ARG_OF_PERICENTER": 273.3107, "MEAN_ANOMALY": 95.5624, "EPHEMERIS_TYPE": 0, "CLASSIFICATION_TYPE": "U", "NORAD_CAT_ID": 35680, "ELEMENT_SET_NO": 999, "REV_AT_EPOCH": 60724, "BSTAR": 0.0038932879, "MEAN_MOTION_DOT": 9.473e-05, "MEAN_MOTION_DDOT": 0}, "tle": {"line1": "1 35680U 97051RJ  25348.36034816  .00009473  00000+0  38933-2 0  9997", "line2": "2 35680  86.1029  20.8049 0150444 273.3107  95.5624 14.20954301607243"}}, "geometry": {"type": "Point", "coordinates": [13.467026344274549, -56.90668362391661]}}]}